OBJECT_NAME,OBJECT_ID,EPOCH,MEAN_MOTION,ECCENTRICITY,INCLINATION,RA_OF_ASC_NODE,ARG_OF_PERICENTER,MEAN_ANOMALY,EPHEMERIS_TYPE,CLASSIFICATION_TYPE,NORAD_CAT_ID,ELEMENT_SET_NO,REV_AT_EPOCH,BSTAR,MEAN_MOTION_DOT,MEAN_MOTION_DDOT
STARLINK-37531,2026-110N,2026-06-10T06:00:02.999808,15.58588489,.00019736,97.2844,357.6776,95.3267,145.1603,0,U,69136,999,454,-.386201E-1,-.2561339E-1,0
STARLINK-37662,2026-110P,2026-06-10T06:00:02.999808,15.49127878,.00018444,97.2850,357.6239,69.5137,45.8712,0,U,69137,999,454,.26792707E-3,.14477E-3,0
STARLINK-37658,2026-110Q,2026-06-10T06:00:02.999808,15.49214776,.00011273,97.2848,357.5495,121.3157,177.2394,0,U,69138,999,454,-.8505849E-5,-.553E-5,0
STARLINK-37659,2026-110R,2026-06-10T06:00:02.999808,15.49165405,.00015756,97.2854,357.5323,88.4058,167.4112,0,U,69139,999,454,.32417869E-3,.17566E-3,0
STARLINK-37653,2026-110S,2026-06-10T06:00:02.999808,15.49165304,.00013992,97.2858,357.5267,88.3474,153.7247,0,U,69140,999,454,.37254783E-3,.20207E-3,0
STARLINK-37654,2026-110T,2026-06-10T06:00:02.999808,15.49162256,.00016615,97.2852,357.6285,92.4385,32.4608,0,U,69141,999,454,.11338264E-3,.6075E-4,0
STARLINK-37655,2026-110U,2026-06-10T06:00:02.999808,15.57104258,.00020125,97.2853,357.6707,85.8192,130.1582,0,U,69142,999,454,-.39563203E-1,-.2491537E-1,0
STARLINK-37636,2026-110V,2026-06-10T06:00:02.999808,15.60566120,.00014347,97.2843,357.7310,101.6546,256.3701,0,U,69143,999,454,-.35189397E-1,-.2522829E-1,0
STARLINK-37638,2026-110W,2026-06-10T06:00:02.999808,15.60977438,.0001583,97.2842,357.7372,98.2952,270.7157,0,U,69144,999,454,-.3538196E-1,-.2570044E-1,0
STARLINK-37657,2026-110X,2026-06-10T06:00:02.999808,15.49156542,.00016427,97.2849,357.6291,90.2068,33.5151,0,U,69145,999,459,.23197764E-3,.12532E-3,0
STARLINK-37639,2026-110Y,2026-06-10T06:00:02.999808,15.61653661,.00014897,97.2844,357.7439,88.3208,295.3412,0,U,69146,999,459,-.33962199E-1,-.253752E-1,0
STARLINK-37661,2026-110Z,2026-06-10T06:00:02.999808,15.49217511,.00018285,97.2851,357.5783,59.2539,304.7723,0,U,69147,999,459,.26442971E-3,.14332E-3,0
STARLINK-37395,2026-111A,2026-06-10T06:04:23.236608,15.81072271,.00008893,53.1587,186.4125,110.2152,249.8966,0,U,69148,999,316,.1883688E-2,.392058E-2,0
STARLINK-37346,2026-111B,2026-06-10T04:31:30.780480,15.80502766,.00060074,53.1590,186.7189,190.6168,169.4728,0,U,69149,999,315,.54258405E-2,.1183615E-1,0
STARLINK-37332,2026-111C,2026-06-10T06:00:02.999808,15.67294270,.00010202,53.1594,186.5220,94.7465,201.4522,0,U,69150,999,443,-.2690605E-1,-.2567261E-1,0
STARLINK-37297,2026-111D,2026-06-09T23:58:26.553216,15.80954125,.00008951,53.1588,187.6706,115.9282,244.1833,0,U,69151,999,312,.12770073E-2,.26005E-2,0
STARLINK-37317,2026-111E,2026-06-10T04:28:43.764096,15.80951951,.00014961,53.1583,186.7072,68.0694,292.0487,0,U,69152,999,315,.11182938E-2,.226732E-2,0
STARLINK-37374,2026-111F,2026-06-10T06:00:02.999808,15.62387191,.00014632,53.1602,186.6008,91.8018,165.2070,0,U,69153,999,443,-.31953208E-1,-.2511153E-1,0
STARLINK-37235,2026-111G,2026-06-10T06:00:02.999808,15.58273533,.00013715,53.1596,186.7922,62.1372,101.4131,0,U,69154,999,443,-.3780594E-1,-.2529787E-1,0
STARLINK-37329,2026-111H,2026-06-10T06:00:24.630048,15.80910836,.000111,53.1585,186.3934,104.8284,255.2861,0,U,69155,999,316,.42529927E-3,.84211E-3,0
STARLINK-37345,2026-111J,2026-06-09T19:21:09.823680,15.81014164,.00204962,53.1598,188.6006,45.6573,314.6126,0,U,69156,999,309,.24197461E-2,.515864E-2,0
STARLINK-37353,2026-111K,2026-06-10T07:29:21.144192,15.79105397,.0007377,53.1586,186.0670,73.0150,287.1680,0,U,69157,999,317,-.12276156E-1,-.1950861E-1,0
STARLINK-37363,2026-111L,2026-06-09T19:17:47.263200,15.81006315,.00021763,53.1584,188.5861,68.8372,291.2883,0,U,69158,999,309,.20271058E-2,.422148E-2,0
STARLINK-37343,2026-111M,2026-06-10T06:00:02.999808,15.62384646,.00012393,53.1600,186.6020,78.1047,178.0147,0,U,69159,999,443,-.31853638E-1,-.2503927E-1,0
STARLINK-37328,2026-111N,2026-06-10T06:00:02.999808,15.80919696,.00011034,53.1585,186.3499,89.0515,291.6383,0,U,69160,999,443,-.69569573E-3,-.136159E-2,0
STARLINK-37311,2026-111P,2026-06-10T06:00:02.999808,15.78100600,.00010932,53.1590,186.4132,84.9612,264.7893,0,U,69161,999,443,-.71961484E-3,-.124069E-2,0
STARLINK-36286,2026-111Q,2026-06-10T06:00:02.999808,15.78085815,.00010936,53.1589,186.4031,87.3654,267.3135,0,U,69162,999,443,-.49120658E-3,-.85227E-3,0
STARLINK-37196,2026-111R,2026-06-10T04:34:09.825600,15.78096136,.00013522,53.1593,186.7313,69.0972,291.0194,0,U,69163,999,315,.78515606E-3,.138136E-2,0
STARLINK-36288,2026-111S,2026-06-10T04:33:00.067968,15.78072376,.00014102,53.1591,186.7253,86.7123,273.4060,0,U,69164,999,315,.80860794E-3,.142199E-2,0
STARLINK-37445,2026-111T,2026-06-10T04:28:28.243200,15.78113864,.00011084,53.1592,186.7049,96.5727,263.5420,0,U,69165,999,315,.1012614E-2,.17936E-2,0
