STARLINK-37531          
1 69136U 26110N   26161.25003472 -.02561339  00000+0 -38620-1 0  9994
2 69136  97.2844 357.6776 0001973  95.3267 145.1603 15.58588489  4548
STARLINK-37662          
1 69137U 26110P   26161.25003472  .00014477  00000+0  26793-3 0  9997
2 69137  97.2850 357.6239 0001844  69.5137  45.8712 15.49127878  4544
STARLINK-37658          
1 69138U 26110Q   26161.25003472 -.00000553  00000+0 -85058-5 0  9991
2 69138  97.2848 357.5495 0001127 121.3157 177.2394 15.49214776  4548
STARLINK-37659          
1 69139U 26110R   26161.25003472  .00017566  00000+0  32418-3 0  9992
2 69139  97.2854 357.5323 0001575  88.4058 167.4112 15.49165405  4549
STARLINK-37653          
1 69140U 26110S   26161.25003472  .00020207  00000+0  37255-3 0  9994
2 69140  97.2858 357.5267 0001399  88.3474 153.7247 15.49165304  4542
STARLINK-37654          
1 69141U 26110T   26161.25003472  .00006075  00000+0  11338-3 0  9996
2 69141  97.2852 357.6285 0001661  92.4385  32.4608 15.49162256  4544
STARLINK-37655          
1 69142U 26110U   26161.25003472 -.02491537  00000+0 -39563-1 0  9990
2 69142  97.2853 357.6707 0002012  85.8192 130.1582 15.57104258  4542
STARLINK-37636          
1 69143U 26110V   26161.25003472 -.02522829  00000+0 -35189-1 0  9990
2 69143  97.2843 357.7310 0001434 101.6546 256.3701 15.60566120  4548
STARLINK-37638          
1 69144U 26110W   26161.25003472 -.02570044  00000+0 -35382-1 0  9998
2 69144  97.2842 357.7372 0001583  98.2952 270.7157 15.60977438  4546
STARLINK-37657          
1 69145U 26110X   26161.25003472  .00012532  00000+0  23198-3 0  9992
2 69145  97.2849 357.6291 0001642  90.2068  33.5151 15.49156542  4595
STARLINK-37639          
1 69146U 26110Y   26161.25003472 -.02537520  00000+0 -33962-1 0  9994
2 69146  97.2844 357.7439 0001489  88.3208 295.3412 15.61653661  4595
STARLINK-37661          
1 69147U 26110Z   26161.25003472  .00014332  00000+0  26443-3 0  9990
2 69147  97.2851 357.5783 0001828  59.2539 304.7723 15.49217511  4591
STARLINK-37395          
1 69148U 26111A   26161.25304672  .00392058  00000+0  18837-2 0  9999
2 69148  53.1587 186.4125 0000889 110.2152 249.8966 15.81072271  3161
STARLINK-37346          
1 69149U 26111B   26161.18855070  .01183615  00000+0  54258-2 0  9990
2 69149  53.1590 186.7189 0006007 190.6168 169.4728 15.80502766  3154
STARLINK-37332          
1 69150U 26111C   26161.25003472 -.02567261  00000+0 -26906-1 0  9995
2 69150  53.1594 186.5220 0001020  94.7465 201.4522 15.67294270  4432
STARLINK-37297          
1 69151U 26111D   26160.99891844  .00260050  00000+0  12770-2 0  9991
2 69151  53.1588 187.6706 0000895 115.9282 244.1833 15.80954125  3120
STARLINK-37317          
1 69152U 26111E   26161.18661764  .00226732  00000+0  11183-2 0  9996
2 69152  53.1583 186.7072 0001496  68.0694 292.0487 15.80951951  3159
STARLINK-37374          
1 69153U 26111F   26161.25003472 -.02511153  00000+0 -31953-1 0  9995
2 69153  53.1602 186.6008 0001463  91.8018 165.2070 15.62387191  4438
STARLINK-37235          
1 69154U 26111G   26161.25003472 -.02529787  00000+0 -37806-1 0  9991
2 69154  53.1596 186.7922 0001371  62.1372 101.4131 15.58273533  4438
STARLINK-37329          
1 69155U 26111H   26161.25028507  .00084211  00000+0  42530-3 0  9994
2 69155  53.1585 186.3934 0001110 104.8284 255.2861 15.80910836  3169
STARLINK-37345          
1 69156U 26111J   26160.80636370  .00515864  00000+0  24197-2 0  9999
2 69156  53.1598 188.6006 0020496  45.6573 314.6126 15.81014164  3096
STARLINK-37353          
1 69157U 26111K   26161.31205028 -.01950861  00000+0 -12276-1 0  9996
2 69157  53.1586 186.0670 0007377  73.0150 287.1680 15.79105397  3176
STARLINK-37363          
1 69158U 26111L   26160.80401925  .00422148  00000+0  20271-2 0  9998
2 69158  53.1584 188.5861 0002176  68.8372 291.2883 15.81006315  3099
STARLINK-37343          
1 69159U 26111M   26161.25003472 -.02503927  00000+0 -31854-1 0  9991
2 69159  53.1600 186.6020 0001239  78.1047 178.0147 15.62384646  4436
STARLINK-37328          
1 69160U 26111N   26161.25003472 -.00136159  00000+0 -69570-3 0  9998
2 69160  53.1585 186.3499 0001103  89.0515 291.6383 15.80919696  4431
STARLINK-37311          
1 69161U 26111P   26161.25003472 -.00124069  00000+0 -71961-3 0  9993
2 69161  53.1590 186.4132 0001093  84.9612 264.7893 15.78100600  4434
STARLINK-36286          
1 69162U 26111Q   26161.25003472 -.00085227  00000+0 -49121-3 0  9999
2 69162  53.1589 186.4031 0001093  87.3654 267.3135 15.78085815  4432
STARLINK-37196          
1 69163U 26111R   26161.19039150  .00138136  00000+0  78516-3 0  9991
2 69163  53.1593 186.7313 0001352  69.0972 291.0194 15.78096136  3157
STARLINK-36288          
1 69164U 26111S   26161.18958412  .00142199  00000+0  80861-3 0  9992
2 69164  53.1591 186.7253 0001410  86.7123 273.4060 15.78072376  3154
STARLINK-37445          
1 69165U 26111T   26161.18643800  .00179360  00000+0  10126-2 0  9991
2 69165  53.1592 186.7049 0001108  96.5727 263.5420 15.78113864  3150
